0 LILACSAT 2
1 40908U 15049K   23043.97703410  .00010186  00000-0  50637-3 0  9993
2 40908  97.5237  47.5493 0012514 262.0277 126.5743 15.17769815408940
0 XW-2E
1 40909U 15049L   23043.96876734  .00036460  00000-0  12450-2 0  9996
2 40909  97.4607  56.5473 0009639 192.2124 197.6658 15.30178524410097
0 ISS (ZARYA)
1 25544U 98067A   23043.96079693  .00027306  00000-0  48513-3 0  9993
2 25544  51.6419 223.8443 0009195 344.7688 177.1125 15.49940187382520
0 CSS (TIANHE-1)
1 48274U 21035A   23043.91329074 -.00000344  00000-0  00000+0 0  9994
2 48274  41.4739 193.7132 0004610 241.3665 258.0451 15.60913227102395
0 XW-3 (CAS 9)
1 50466U 21131B   23043.89869627  .00001258  00000-0  42470-3 0  9992
2 50466  98.5606 125.8207 0005381 144.9594 215.1948 14.38675747 59483
0 TEVEL 7
1 51062U 22002CG  23043.85913222  .00026898  00000-0  12734-2 0  9996
2 51062  97.4521 112.0925 0008084 310.7619 146.8107 15.19288411 59844
0 TEVEL 8
1 50989U 22002F   23043.85742471  .00026969  00000-0  12770-2 0  9998
2 50989  97.4523 112.1131 0007873 311.6916 147.2657 15.19283300 59845
0 OBJECT C
1 54684U 22167C   23043.84537932  .00018338  00000-0  11213-2 0  9991
2 54684  97.5422 182.7510 0015009  45.7104 107.6780 15.10203253  9884
0 ZHUHAI-1 02
1 42759U 17034B   23043.83964193  .00014018  00000-0  75640-3 0  9996
2 42759  43.0168  85.5979 0010170   7.8211 161.3259 15.14568476312765
0 DIWATA 2B
1 43678U 18084H   23043.81230808  .00003266  00000-0  32130-3 0  9990
2 43678  97.9993 185.4817 0009157 206.5697 153.5147 14.92795279233703
0 TEVEL 4
1 51063U 22002CH  23043.79559676  .00026797  00000-0  12699-2 0  9997
2 51063  97.4527 112.0219 0007703 309.8623 145.4157 15.19257035 59835
0 TEVEL 1
1 51013U 22002AF  23043.79195124  .00026926  00000-0  12740-2 0  9997
2 51013  97.4509 111.9618 0007940 312.1287 187.8554 15.19307083 59837
0 TEVEL 6
1 50999U 22002R   23043.78799461  .00027590  00000-0  12807-2 0  9994
2 50999  97.4501 112.2527 0008983 303.2945 198.5231 15.19957757 59856
0 TEVEL 2
1 51069U 22002CP  23043.78718909  .00027187  00000-0  12852-2 0  9993
2 51069  97.4508 111.9739 0007712 312.2380 187.5805 15.19338231 59838
0 TEVEL 3
1 50988U 22002E   23043.78533476  .00027166  00000-0  12842-2 0  9992
2 50988  97.4506 111.9968 0007746 312.0790 187.8879 15.19339212 59833
0 TEVEL 5
1 50998U 22002Q   23043.78092024  .00027679  00000-0  12848-2 0  9997
2 50998  97.4500 112.2479 0009399 305.7717 150.7169 15.19952114 59858
0 XW-2D
1 40907U 15049J   23043.77583888  .00021736  00000-0  90104-3 0  9991
2 40907  97.4955  51.0613 0010123 224.3059 309.6405 15.23861172409500
0 XW-2A
1 40903U 15049E   23043.75420192  .00140075  00000-0  98515-3 0  9995
2 40903  97.1393 109.5559 0004932 293.1253 215.3816 15.73702199416738
0 XW-2C
1 40906U 15049H   23043.74602765  .00018366  00000-0  78992-3 0  9999
2 40906  97.4964  50.7728 0010871 233.7995 236.7407 15.22640155409434
0 XW-2B
1 40911U 15049N   23043.74505897  .00021353  00000-0  88961-3 0  9990
2 40911  97.4932  51.5363 0009995 228.1849 246.4659 15.23696389409382
0 XW-2F
1 40910U 15049M   23043.73552398  .00035907  00000-0  12485-2 0  9993
2 40910  97.4702  55.5144 0010186 195.6933 275.4163 15.29587404409816
0 XW-4 (CAS-10)
1 54816U 21035C   23043.68696067  .00304803  00000-0  16835-2 0  9998
2 54816  41.4749 191.3058 0016205 325.3969  34.5867 15.77770364  8764
0 UVSQ-SAT
1 47438U 21006AB  23043.59918340  .00023638  00000-0  11020-2 0  9994
2 47438  97.4043 102.7657 0011405 154.5469 205.6330 15.19816135113697
0 ZHUHAI-1 01
1 42761U 17034D   23043.59065458  .00012569  00000-0  67739-3 0  9997
2 42761  43.0168  85.5720 0011099   9.5971 126.7117 15.14678877312737
0 ES'HAIL 2
1 43700U 18090A   23043.54686383  .00000156  00000-0  00000-0 0  9999
2 43700   0.0163 124.7804 0002400 239.3112   0.8838  1.00269589 15439
0 BREEZE-KM R/B
1 44909U 19096E   23043.52316316  .00000015  00000-0  95345-5 0  9997
2 44909  82.5176  70.7812 0218488 118.3160 244.0172 12.79718238146215
0 JAS 2
1 24278U 96046B   23043.45096521  .00000125  00000-0  16203-3 0  9995
2 24278  98.5183  39.0664 0350662  20.6812 340.8126 13.53131692308063
0 JY1SAT
1 43803U 18099AX  23043.43698664  .00010485  00000-0  86922-3 0  9991
2 43803  97.5877 109.2659 0014432 179.9234 180.1994 14.98922556228997
0 AO-91
1 43017U 17073E   23043.40429007  .00009094  00000-0  65344-3 0  9998
2 43017  97.6483 292.7208 0241977 120.4293 242.1073 14.83826141282666
0 OSCAR 7
1 07530U 74089B   23043.40121420 -.00000019  00000-0  17223-3 0  9998
2 07530 101.9364  29.2896 0012026 303.3215 216.0939 12.53661062207534
0 SAUDISAT 1C
1 27607U 02058C   23043.38487467  .00002824  00000-0  40222-3 0  9995
2 27607  64.5555 287.4112 0078273 248.9755 110.2963 14.76735224 83796
0 FUNCUBE 1
1 39444U 13066AE  23043.35135609  .00010273  00000-0  11774-2 0  9999
2 39444  97.6568  12.0806 0053666 326.0927  33.6862 14.85053181497104
0 EYESAT A
1 22825U 93061C   23043.33661253  .00000334  00000-0  14658-3 0  9996
2 22825  98.8602  84.1063 0009447  74.8121 285.4104 14.30244373532446
0 LAPAN A2
1 40931U 15052B   23043.24968169  .00001414  00000-0  10654-3 0  9996
2 40931   5.9971 258.3357 0014000 326.8447  33.0917 14.77022952398857
0 AO-92
1 43137U 18004AC  23043.17695413  .00040753  00000-0  11362-2 0  9993
2 43137  97.3425 121.7979 0006268 226.0047 134.0682 15.36634883283047
0 NAYIF 1
1 42017U 17008BX  23043.14409396  .00082463  00000-0  15560-2 0  9990
2 42017  97.2348 112.0402 0003503 104.4634 255.7005 15.48170981333953
0 NEXUS
1 43937U 19003F   23043.07267691  .00050163  00000-0  12595-2 0  9998
2 43937  97.1064  72.8939 0016904  20.1548 340.0362 15.39690273226714
0 AO-95
1 43770U 18099N   23043.07104795  .00010434  00000-0  88345-3 0  9996
2 43770  97.5922 108.0112 0013226 184.0486 176.0631 14.98121493228867
0 MT-CUBE-2
1 53106U 22080B   23034.19933790 -.00000003  00000-0  00000-0 0  9994
2 53106  70.1777   6.2677 0008922 216.5435 143.4616  6.42557193 13147
